NORAD_CAT_ID,OBJECT_NAME,OBJECT_TYPE,EPOCH,MEAN_MOTION,ECCENTRICITY,INCLINATION,RA_OF_ASC_NODE,ARG_OF_PERICENTER,MEAN_ANOMALY,BSTAR,MEAN_MOTION_DOT,MEAN_MOTION_DDOT,TLE_LINE0,TLE_LINE1,TLE_LINE2,SEMIMAJOR_AXIS,PERIOD,APOGEE,PERIGEE,DECAYED
52832.0,STARLINK-4083,PAYLOAD,2023-10-05 01:58:55,15.08837219,0.0001705,53.2182,54.2495,83.4223,276.6963,6.0644e-05,6.77e-06,0.0,0 STARLINK-4083,1 52832U 22062C   23278.08258502  .00000677  00000-0  60644-4 0  9998,2 52832  53.2182  54.2495 0001705  83.4223 276.6963 15.08837219 72425,6917.889,95.438,540.933,538.574,0.0
52832.0,STARLINK-4083,PAYLOAD,2023-10-05 13:06:37,15.08836078,0.0001524,53.2176,52.1702,95.138,264.9786,2.1205e-05,4.9e-07,0.0,0 STARLINK-4083,1 52832U 22062C   23278.54626735  .00000049  00000-0  21205-4 0  9999,2 52832  53.2176  52.1702 0001524  95.1380 264.9786 15.08836078 72008,6917.892,95.438,540.812,538.703,0.0
52832.0,STARLINK-4083,PAYLOAD,2023-10-05 17:52:46,15.08846375,0.0001487,53.2184,51.2753,97.8822,262.2339,0.00019785,2.863e-05,0.0,0 STARLINK-4083,1 52832U 22062C   23278.74498187  .00002863  00000-0  19785-3 0  9994,2 52832  53.2184  51.2753 0001487  97.8822 262.2339 15.08846375 72030,6917.861,95.437,540.755,538.697,0.0
52832.0,STARLINK-4083,PAYLOAD,2023-10-06 08:11:15,15.08835626,0.0001697,53.2182,48.5962,120.4007,239.7153,-3.5545e-05,-8.54e-06,0.0,0 STARLINK-4083,1 52832U 22062C   23279.34114665 -.00000854  00000-0 -35545-4 0  9990,2 52832  53.2182  48.5962 0001697 120.4007 239.7153 15.08835626 72614,6917.894,95.438,540.933,538.585,0.0
52832.0,STARLINK-4083,PAYLOAD,2023-10-06 12:57:24,15.08836092,0.0001704,53.2175,47.7069,108.653,251.4647,-2.3026e-05,-6.54e-06,0.0,0 STARLINK-4083,1 52832U 22062C   23279.53986800 -.00000654  00000-0 -23026-4 0  9998,2 52832  53.2175  47.7069 0001704 108.6530 251.4647 15.08836092 72159,6917.892,95.438,540.936,538.579,0.0
52832.0,STARLINK-4083,PAYLOAD,2023-10-06 16:08:10,15.08838667,0.0001385,53.218,47.1144,85.6547,274.4604,9.8983e-05,1.288e-05,0.0,0 STARLINK-4083,1 52832U 22062C   23279.67234942  .00001288  00000-0  98983-4 0  9992,2 52832  53.2180  47.1144 0001385  85.6547 274.4604 15.08838667 72170,6917.884,95.438,540.708,538.791,0.0
52832.0,STARLINK-4083,PAYLOAD,2023-10-07 14:23:35,15.08846339,0.0001231,53.2175,42.9531,81.3291,278.7841,0.00035053,5.296e-05,0.0,0 STARLINK-4083,1 52832U 22062C   23280.59971168  .00005296  00000-0  35053-3 0  9994,2 52832  53.2175  42.9531 0001231  81.3291 278.7841 15.08846339 72317,6917.861,95.437,540.578,538.874,0.0
52832.0,STARLINK-4083,PAYLOAD,2023-10-07 15:58:58,15.08852169,0.0001477,53.2182,42.6565,77.8232,282.2926,0.00050152,7.705e-05,0.0,0 STARLINK-4083,1 52832U 22062C   23280.66594957  .00007705  00000-0  50152-3 0  9993,2 52832  53.2182  42.6565 0001477  77.8232 282.2926 15.08852169 72813,6917.843,95.437,540.73,538.686,0.0
52832.0,STARLINK-4083,PAYLOAD,2023-10-08 01:31:16,15.08846288,0.0001488,53.2187,40.8695,86.1276,273.9886,0.0003878,5.89e-05,0.0,0 STARLINK-4083,1 52832U 22062C   23281.06339084  .00005890  00000-0  38780-3 0  9992,2 52832  53.2187  40.8695 0001488  86.1276 273.9886 15.08846288 72878,6917.861,95.437,540.756,538.697,0.0
52832.0,STARLINK-4083,PAYLOAD,2023-10-08 14:14:22,15.08845011,0.0001381,53.2178,38.4922,89.2784,270.8366,0.00022846,3.35e-05,0.0,0 STARLINK-4083,1 52832U 22062C   23281.59331165  .00003350  00000-0  22846-3 0  9997,2 52832  53.2178  38.4922 0001381  89.2784 270.8366 15.08845011 72461,6917.865,95.437,540.685,538.775,0.0
52832.0,STARLINK-4083,PAYLOAD,2023-10-08 15:49:45,15.08851799,0.0001554,53.2176,38.1935,92.6549,267.4621,0.00037124,5.627e-05,0.0,0 STARLINK-4083,1 52832U 22062C   23281.65954978  .00005627  00000-0  37124-3 0  9991,2 52832  53.2176  38.1935 0001554  92.6549 267.4621 15.08851799 72476,6917.844,95.437,540.784,538.634,0.0
52832.0,STARLINK-4083,PAYLOAD,2023-10-09 14:05:09,15.08850104,0.0001455,53.218,34.0311,98.3293,261.7865,0.00049844,7.656e-05,0.0,0 STARLINK-4083,1 52832U 22062C   23282.58691089  .00007656  00000-0  49844-3 0  9991,2 52832  53.2180  34.0311 0001455  98.3293 261.7865 15.08850104 72615,6917.85,95.437,540.721,538.708,0.0
52832.0,STARLINK-4083,PAYLOAD,2023-10-09 18:51:18,15.08869217,0.0001313,53.2181,33.1376,94.1229,265.9913,0.0011157,0.00017527,0.0,0 STARLINK-4083,1 52832U 22062C   23282.78562578  .00017527  00000-0  11157-2 0  9996,2 52832  53.2181  33.1376 0001313  94.1229 265.9913 15.08869217 72641,6917.791,95.436,540.564,538.748,0.0
52832.0,STARLINK-4083,PAYLOAD,2023-10-10 10:45:09,15.08826104,0.0001196,53.2179,30.1642,44.7755,315.3333,-0.00029327,-4.95e-05,0.0,0 STARLINK-4083,1 52832U 22062C   23283.44802566 -.00004950  00000-0 -29327-3 0  9991,2 52832  53.2179  30.1642 0001196  44.7755 315.3333 15.08826104 73235,6917.923,95.438,540.615,538.96,0.0
52832.0,STARLINK-4083,PAYLOAD,2023-10-10 13:55:55,15.08824025,0.0001242,53.218,29.57,96.4214,263.6919,0.00012686,1.731e-05,0.0,0 STARLINK-4083,1 52832U 22062C   23283.58050595  .00001731  00000-0  12686-3 0  9995,2 52832  53.2180  29.5700 0001242  96.4214 263.6919 15.08824025 72762,6917.929,95.439,540.653,538.935,0.0
52832.0,STARLINK-4083,PAYLOAD,2023-10-10 18:42:05,15.08810993,0.0001142,53.2186,28.6778,93.3954,266.7168,0.0012629,0.00019852,0.0,0 STARLINK-4083,1 52832U 22062C   23283.77923094  .00019852  00000-0  12629-2 0  9998,2 52832  53.2186  28.6778 0001142  93.3954 266.7168 15.08810993 72791,6917.969,95.439,540.624,539.044,0.0
52832.0,STARLINK-4083,PAYLOAD,2023-10-11 13:46:44,15.08830295,0.000131,53.2183,25.1107,93.9668,266.1474,0.0013275,0.00020897,0.0,0 STARLINK-4083,1 52832U 22062C   23284.57412716  .00020897  00000-0  13275-2 0  9990,2 52832  53.2183  25.1107 0001310  93.9668 266.1474 15.08830295 73401,6917.91,95.438,540.681,538.869,0.0
52832.0,STARLINK-4083,PAYLOAD,2023-10-12 13:37:31,15.08872044,0.0001391,53.2187,20.651,87.0006,273.1145,0.0018094,0.00028651,0.0,0 STARLINK-4083,1 52832U 22062C   23285.56772291  .00028651  00000-0  18094-2 0  9997,2 52832  53.2187  20.6510 0001391  87.0006 273.1145 15.08872044 73065,6917.782,95.436,540.61,538.685,0.0
52832.0,STARLINK-4083,PAYLOAD,2023-10-13 05:31:22,15.08864911,0.0001818,53.2199,17.6818,102.8156,257.3039,0.0009737,0.00015253,0.0,0 STARLINK-4083,1 52832U 22062C   23286.23011801  .00015253  00000-0  97370-3 0  9994,2 52832  53.2199  17.6818 0001818 102.8156 257.3039 15.08864911 73656,6917.804,95.436,540.927,538.412,0.0
52832.0,STARLINK-4083,PAYLOAD,2023-10-13 13:28:17,15.08864185,0.0001469,53.2189,16.19,93.4181,266.698,0.0017874,0.00028292,0.0,0 STARLINK-4083,1 52832U 22062C   23286.56131585  .00028292  00000-0  17874-2 0  9999,2 52832  53.2189  16.1900 0001469  93.4181 266.6980 15.08864185 73219,6917.806,95.436,540.688,538.655,0.0
52832.0,STARLINK-4083,PAYLOAD,2023-10-13 23:00:36,15.0886762,0.0001426,53.2186,14.4061,82.2586,277.8568,0.0013489,0.00021261,0.0,0 STARLINK-4083,1 52832U 22062C   23286.95875263  .00021261  00000-0  13489-2 0  9997,2 52832  53.2186  14.4061 0001426  82.2586 277.8568 15.08867620 73766,6917.796,95.436,540.647,538.674,0.0
52832.0,STARLINK-4083,PAYLOAD,2023-10-14 10:08:18,15.08865427,0.0002609,53.2196,12.3267,82.9576,277.1712,0.0010382,0.00016285,0.0,0 STARLINK-4083,1 52832U 22062C   23287.42243174  .00016285  00000-0  10382-2 0  9999,2 52832  53.2196  12.3267 0002609  82.9576 277.1712 15.08865427 73837,6917.803,95.436,541.473,537.863,0.0
52832.0,STARLINK-4083,PAYLOAD,2023-10-14 13:19:04,15.0886331,0.0001929,53.2195,11.7306,83.1021,277.0191,0.00053522,8.246e-05,0.0,0 STARLINK-4083,1 52832U 22062C   23287.55490799  .00008246  00000-0  53522-3 0  9992,2 52832  53.2195  11.7306 0001929  83.1021 277.0191 15.08863310 73362,6917.809,95.436,541.009,538.34,0.0
52832.0,STARLINK-4083,PAYLOAD,2023-10-15 05:12:56,15.08821144,0.0001817,53.2195,8.7584,99.3004,260.8193,-0.00048205,-7.948e-05,0.0,0 STARLINK-4083,1 52832U 22062C   23288.21731959 -.00007948  00000-0 -48205-3 0  9994,2 52832  53.2195   8.7584 0001817  99.3004 260.8193 15.08821144 73958,6917.938,95.439,541.06,538.546,0.0
52832.0,STARLINK-4083,PAYLOAD,2023-10-15 13:09:52,15.08813942,0.0001472,53.2175,7.2706,98.4102,261.7057,0.00022577,3.305e-05,0.0,0 STARLINK-4083,1 52832U 22062C   23288.54852225  .00003305  00000-0  22577-3 0  9995,2 52832  53.2175   7.2706 0001472  98.4102 261.7057 15.08813942 73510,6917.96,95.439,540.843,538.807,0.0
52832.0,STARLINK-4083,PAYLOAD,2023-10-16 05:03:44,15.08839013,0.000153,53.2176,4.2965,103.2258,256.8905,0.00077935,0.00012137,0.0,0 STARLINK-4083,1 52832U 22062C   23289.21092671  .00012137  00000-0  77935-3 0  9992,2 52832  53.2176   4.2965 0001530 103.2258 256.8905 15.08839013 74107,6917.883,95.438,540.807,538.69,0.0
52832.0,STARLINK-4083,PAYLOAD,2023-10-16 14:36:02,15.08867432,0.0001628,53.2174,2.5134,95.9919,264.1259,0.00176,0.00027855,0.0,0 STARLINK-4083,1 52832U 22062C   23289.60836404  .00027855  00000-0  17600-2 0  9990,2 52832  53.2174   2.5134 0001628  95.9919 264.1259 15.08867432 73674,6917.797,95.436,540.788,538.535,0.0
52832.0,STARLINK-4083,PAYLOAD,2023-10-17 11:16:03,15.08852208,0.0001344,53.2177,358.6475,93.7171,266.3975,0.0013543,0.00021339,0.0,0 STARLINK-4083,1 52832U 22062C   23290.46948489  .00021339  00000-0  13543-2 0  9996,2 52832  53.2177 358.6475 0001344  93.7171 266.3975 15.08852208 74294,6917.843,95.437,540.638,538.778,0.0
52832.0,STARLINK-4083,PAYLOAD,2023-10-18 11:06:50,15.08849433,0.0001473,53.2179,354.1868,100.016,260.0999,0.00042303,6.453e-05,0.0,0 STARLINK-4083,1 52832U 22062C   23291.46308273  .00006453  00000-0  42303-3 0  9995,2 52832  53.2179 354.1868 0001473 100.0160 260.0999 15.08849433 74446,6917.852,95.437,540.736,538.698,0.0
52832.0,STARLINK-4083,PAYLOAD,2023-10-18 14:17:36,15.08853496,0.0001447,53.2176,353.5913,99.6845,260.4311,0.00048544,7.449e-05,0.0,0 STARLINK-4083,1 52832U 22062C   23291.59556138  .00007449  00000-0  48544-3 0  9993,2 52832  53.2176 353.5913 0001447  99.6845 260.4311 15.08853496 73974,6917.839,95.437,540.705,538.703,0.0
